OBJECT_NAME,OBJECT_ID,EPOCH,MEAN_MOTION,ECCENTRICITY,INCLINATION,RA_OF_ASC_NODE,ARG_OF_PERICENTER,MEAN_ANOMALY,EPHEMERIS_TYPE,CLASSIFICATION_TYPE,NORAD_CAT_ID,ELEMENT_SET_NO,REV_AT_EPOCH,BSTAR,MEAN_MOTION_DOT,MEAN_MOTION_DDOT
HAWK-5A,2022-057AB,2026-07-08T09:19:08.020128,15.52155055,.00039951,97.6626,349.6203,4.7180,355.4108,0,U,52757,999,22963,.19663002E-3,.11795E-3,0
HAWK-6B,2023-011A,2026-07-08T07:08:09.952224,15.23113138,.00031512,40.4970,228.9275,202.6849,157.3821,0,U,55324,999,19106,.10299011E-3,.2286E-4,0
HAWK-6C,2023-011C,2026-07-08T11:50:31.485408,15.23115956,.00035892,40.4959,224.6190,191.9345,168.1380,0,U,55326,999,19110,.12667532E-3,.2857E-4,0
HAWK-6A,2023-011D,2026-07-08T11:50:34.331424,15.23116716,.00031288,40.4968,226.2458,189.8545,170.2204,0,U,55327,999,19110,.12251689E-3,.2757E-4,0
HAWK-7A,2023-054P,2026-07-08T14:20:37.778208,15.27586909,.00021774,97.2675,76.3907,2.1486,357.9763,0,U,56191,999,18029,.14311261E-3,.3788E-4,0
HAWK-7B,2023-054R,2026-07-08T14:20:31.140960,15.27589909,.00020164,97.2702,74.6619,28.7267,331.4084,0,U,56193,999,18029,.14071312E-3,.3724E-4,0
HAWK-7C,2023-054Y,2026-07-08T14:20:21.618816,15.27588010,.00016883,97.2678,75.4240,14.6461,345.4827,0,U,56200,999,18029,.1402897E-3,.3712E-4,0
